ONEWEB-0716             
1 55177U 23004AP  25249.19575489  .00000070  00000+0  14603-3 0  9997
2 55177  87.9030  62.3728 0001617  83.6716 276.4600 13.17649484130183
ONEWEB-0717             
1 55178U 23004AQ  25249.17887032  .00000108  00000+0  24594-3 0  9998
2 55178  87.9042  62.3381 0002333 103.5961 256.5431 13.17649232130230
ONEWEB-0719             
1 55179U 23004AR  25249.18899835 -.00000013  00000+0 -66146-4 0  9991
2 55179  87.9040  62.3189 0001799  84.0125 276.1212 13.17651777130181
ONEWEB-0530             
1 55796U 23029A   25249.22976705  .00000527  00000+0  12630-2 0  9995
2 55796  87.9288 331.0896 0002563  97.8017 262.3407 13.20768737123660
ONEWEB-0534             
1 55797U 23029B   25249.29290556  .00000097  00000+0  20653-3 0  9993
2 55797  87.9281 331.0816 0001834  95.5618 264.5725 13.20771852123678
ONEWEB-0556             
1 55798U 23029C   25249.22346014  .00000000  00000+0 -30993-4 0  9992
2 55798  87.9286 331.0905 0002316  80.5934 279.5461 13.20770848123660
ONEWEB-0562             
1 55799U 23029D   25249.28656082  .00000092  00000+0  19333-3 0  9992
2 55799  87.9279 331.0658 0002778  90.6164 269.5288 13.20774396123676
ONEWEB-0563             
1 55800U 23029E   25249.28025255  .00000029  00000+0  39811-4 0  9991
2 55800  87.9290 331.0874 0001799  90.8632 269.2708 13.20774113123666
